[{"OBJECT_NAME":"HUNITY","OBJECT_ID":"2025-276E","EPOCH":"2026-03-09T18:00:58.161024","MEAN_MOTION":15.21896165,"ECCENTRICITY":0.0006587,"INCLINATION":97.4154,"RA_OF_ASC_NODE":144.0054,"ARG_OF_PERICENTER":10.2177,"MEAN_ANOMALY":349.9192,"EPHEMERIS_TYPE":0,"CLASSIFICATION_TYPE":"U","NORAD_CAT_ID":66670,"ELEMENT_SET_NO":999,"REV_AT_EPOCH":1533,"BSTAR":0.001210955,"MEAN_MOTION_DOT":0.0002759,"MEAN_MOTION_DDOT":0},{"OBJECT_NAME":"ICUBE-1","OBJECT_ID":"2013-066S","EPOCH":"2026-03-09T21:15:50.265216","MEAN_MOTION":15.23110621,"ECCENTRICITY":0.00159988,"INCLINATION":97.5653,"RA_OF_ASC_NODE":53.5484,"ARG_OF_PERICENTER":327.1969,"MEAN_ANOMALY":32.8272,"EPHEMERIS_TYPE":0,"CLASSIFICATION_TYPE":"U","NORAD_CAT_ID":39432,"ELEMENT_SET_NO":999,"REV_AT_EPOCH":66928,"BSTAR":0.00081477483,"MEAN_MOTION_DOT":0.00019249,"MEAN_MOTION_DDOT":0}]
